IRIDIUM 57              
1 25273U 98019B   24135.89018347  .00001132  00000+0  38921-3 0  9993
2 25273  86.3928 312.0779 0002137  89.2537 270.8904 14.35200060367640
IRIDIUM 63              
1 25286U 98021B   24135.36908038  .00001385  00000+0  47262-3 0  9995
2 25286  86.3992 249.1724 0002314  96.9005 263.2455 14.35747890366606
IRIDIUM 69              
1 25319U 98026A   24135.88435103  .00001441  00000+0  45202-3 0  9997
2 25319  86.3964 263.4496 0000734 185.7720 174.3471 14.39973423365721
IRIDIUM 71              
1 25320U 98026B   24135.61373686  .00001548  00000+0  48265-3 0  9997
2 25320  86.3969 258.3293 0001730  29.8302 330.2995 14.40290304366207
IRIDIUM 73              
1 25344U 98032C   24135.49928421  .00001565  00000+0  39490-3 0  9998
2 25344  86.4464 215.8675 0001770 100.4486 259.6918 14.50512010372746
IRIDIUM 82              
1 25467U 98051A   24135.93599239  .00016018  00000+0  82626-3 0  9993
2 25467  86.3729 301.5419 0127861 343.8341  15.8831 15.09290089363477
IRIDIUM 2               
1 25527U 98066A   24135.80086898  .00229707  00000+0  14405-2 0  9994
2 25527  85.5017 324.9895 0002608 114.6543 245.5001 15.76135965402156
